SKYKRAFT-1A             
1 55054U 23001AX  26068.71064616  .00008177  00000+0  30069-3 0  9991
2 55054  97.3349 127.6290 0011277 121.5092 238.7251 15.28083228176529
STARLINK-32770          
1 62741U 25014G   26068.25697484  .00033908  00000+0  12357-2 0  9991
2 62741  42.9954 156.6242 0000407 256.5000 103.5806 15.27588135 63197
